start=new Date('2022-10-03T00:00:00.000Z').valueOf();
sats=[{"FILE":"3589751","ARG_OF_PERICENTER":"55.3583","TLE_LINE1":"1 48651U 21044P   22275.73043066 -.00001600  00000-0 -88507-4 0  9993","BSTAR":"-0.00008850700000","ELEMENT_SET_NO":"999","EPHEMERIS_TYPE":"0","EPOCH":"2022-10-02T17:31:49.209024","ECCENTRICITY":"0.00015110","INCLINATION":"53.0556","MEAN_MOTION":"15.06400039","CLASSIFICATION_TYPE":"U","MEAN_MOTION_DOT":"-0.00001600","GP_ID":"214047796","PERIAPSIS":"546.167","REV_AT_EPOCH":"7470","MEAN_ANOMALY":"304.7548","CENTER_NAME":"EARTH","OBJECT_TYPE":"PAYLOAD","NORAD_CAT_ID":"48651","COUNTRY_CODE":"US","OBJECT_NAME":"STARLINK-2731","RA_OF_ASC_NODE":"350.8670","APOAPSIS":"548.260","RCS_SIZE":"LARGE","OBJECT_ID":"2021-044P","REF_FRAME":"TEME","SITE":"AFETR","PERIOD":"95.592","TLE_LINE2":"2 48651  53.0556 350.8670 0001511  55.3583 304.7548 15.06400039 74703","DECAY_DATE":null,"MEAN_MOTION_DDOT":"0.0000000000000","SEMIMAJOR_AXIS":"6925.348","MEAN_ELEMENT_THEORY":"SGP4","TIME_SYSTEM":"UTC","LAUNCH_DATE":"2021-05-26"},{"GP_ID":"214049043","PERIAPSIS":"546.194","REV_AT_EPOCH":"7470","MEAN_ANOMALY":"301.8951","CENTER_NAME":"EARTH","TLE_LINE1":"1 48652U 21044Q   22275.72674511 -.00001846  00000-0 -10510-3 0  9998","ARG_OF_PERICENTER":"58.2187","FILE":"3589751","ELEMENT_SET_NO":"999","EPHEMERIS_TYPE":"0","EPOCH":"2022-10-02T17:26:30.777504","BSTAR":"-0.00010510000000","ECCENTRICITY":"0.00015270","MEAN_MOTION_DOT":"-0.00001846","CLASSIFICATION_TYPE":"U","INCLINATION":"53.0540","MEAN_MOTION":"15.06387560","REF_FRAME":"TEME","SITE":"AFETR","OBJECT_ID":"2021-044Q","TLE_LINE2":"2 48652  53.0540 350.8943 0001527  58.2187 301.8951 15.06387560 74708","PERIOD":"95.593","SEMIMAJOR_AXIS":"6925.387","MEAN_ELEMENT_THEORY":"SGP4","DECAY_DATE":null,"MEAN_MOTION_DDOT":"0.0000000000000","LAUNCH_DATE":"2021-05-26","TIME_SYSTEM":"UTC","OBJECT_TYPE":"PAYLOAD","NORAD_CAT_ID":"48652","APOAPSIS":"548.309","RCS_SIZE":"LARGE","COUNTRY_CODE":"US","RA_OF_ASC_NODE":"350.8943","OBJECT_NAME":"STARLINK-2727"},{"GP_ID":"214049280","PERIAPSIS":"546.094","REV_AT_EPOCH":"7468","MEAN_ANOMALY":"284.4590","CENTER_NAME":"EARTH","TLE_LINE1":"1 48653U 21044R   22275.59037785 -.00002043  00000-0 -11830-3 0  9996","ARG_OF_PERICENTER":"75.6585","FILE":"3589751","ELEMENT_SET_NO":"999","EPHEMERIS_TYPE":"0","EPOCH":"2022-10-02T14:10:08.646240","BSTAR":"-0.00011830000000","ECCENTRICITY":"0.00016710","CLASSIFICATION_TYPE":"U","MEAN_MOTION_DOT":"-0.00002043","INCLINATION":"53.0579","MEAN_MOTION":"15.06387827","REF_FRAME":"TEME","SITE":"AFETR","OBJECT_ID":"2021-044R","TLE_LINE2":"2 48653  53.0579 351.5009 0001671  75.6585 284.4590 15.06387827 74685","PERIOD":"95.593","MEAN_ELEMENT_THEORY":"SGP4","SEMIMAJOR_AXIS":"6925.386","DECAY_DATE":null,"MEAN_MOTION_DDOT":"0.0000000000000","LAUNCH_DATE":"2021-05-26","TIME_SYSTEM":"UTC","OBJECT_TYPE":"PAYLOAD","NORAD_CAT_ID":"48653","APOAPSIS":"548.408","RCS_SIZE":"LARGE","COUNTRY_CODE":"US","OBJECT_NAME":"STARLINK-2720","RA_OF_ASC_NODE":"351.5009"},{"APOAPSIS":"548.272","RCS_SIZE":"LARGE","COUNTRY_CODE":"US","RA_OF_ASC_NODE":"350.9235","OBJECT_NAME":"STARLINK-2651","OBJECT_TYPE":"PAYLOAD","NORAD_CAT_ID":"48654","SEMIMAJOR_AXIS":"6925.392","MEAN_ELEMENT_THEORY":"SGP4","DECAY_DATE":null,"MEAN_MOTION_DDOT":"0.0000000000000","LAUNCH_DATE":"2021-05-26","TIME_SYSTEM":"UTC","REF_FRAME":"TEME","SITE":"AFETR","OBJECT_ID":"2021-044S","TLE_LINE2":"2 48654  53.0557 350.9235 0001465  70.7138 289.4010 15.06385765 75601","PERIOD":"95.593","ECCENTRICITY":"0.00014650","MEAN_MOTION_DOT":"-0.00002109","CLASSIFICATION_TYPE":"U","MEAN_MOTION":"15.06385765","INCLINATION":"53.0557","ARG_OF_PERICENTER":"70.7138","TLE_LINE1":"1 48654U 21044S   22275.71938931 -.00002109  00000-0 -12279-3 0  9995","FILE":"3589544","ELEMENT_SET_NO":"999","EPHEMERIS_TYPE":"0","EPOCH":"2022-10-02T17:15:55.236384","BSTAR":"-0.00012279000000","PERIAPSIS":"546.243","REV_AT_EPOCH":"7560","MEAN_ANOMALY":"289.4010","CENTER_NAME":"EARTH","GP_ID":"214021989"},{"PERIAPSIS":"546.227","REV_AT_EPOCH":"7469","MEAN_ANOMALY":"305.0679","CENTER_NAME":"EARTH","GP_ID":"214048296","ECCENTRICITY":"0.00014980","MEAN_MOTION_DOT":"-0.00001069","CLASSIFICATION_TYPE":"U","INCLINATION":"53.0555","MEAN_MOTION":"15.06383351","ARG_OF_PERICENTER":"55.0450","TLE_LINE1":"1 48655U 21044T   22275.64933881 -.00001069  00000-0 -52933-4 0  9993","FILE":"3589751","ELEMENT_SET_NO":"999","EPOCH":"2022-10-02T15:35:02.873184","EPHEMERIS_TYPE":"0","BSTAR":"-0.00005293300000","MEAN_ELEMENT_THEORY":"SGP4","SEMIMAJOR_AXIS":"6925.400","DECAY_DATE":null,"MEAN_MOTION_DDOT":"0.0000000000000","LAUNCH_DATE":"2021-05-26","TIME_SYSTEM":"UTC","REF_FRAME":"TEME","SITE":"AFETR","OBJECT_ID":"2021-044T","TLE_LINE2":"2 48655  53.0555 351.2352 0001498  55.0450 305.0679 15.06383351 74696","PERIOD":"95.593","APOAPSIS":"548.302","RCS_SIZE":"LARGE","COUNTRY_CODE":"US","OBJECT_NAME":"STARLINK-2657","RA_OF_ASC_NODE":"351.2352","OBJECT_TYPE":"PAYLOAD","NORAD_CAT_ID":"48655"},{"OBJECT_TYPE":"PAYLOAD","NORAD_CAT_ID":"48656","COUNTRY_CODE":"US","RA_OF_ASC_NODE":"351.2534","OBJECT_NAME":"STARLINK-2701","APOAPSIS":"548.405","RCS_SIZE":"LARGE","OBJECT_ID":"2021-044U","REF_FRAME":"TEME","SITE":"AFETR","PERIOD":"95.593","TLE_LINE2":"2 48656  53.0570 351.2534 0001659  67.2040 292.9124 15.06386170 74696","DECAY_DATE":null,"MEAN_MOTION_DDOT":"0.0000000000000","SEMIMAJOR_AXIS":"6925.391","MEAN_ELEMENT_THEORY":"SGP4","TIME_SYSTEM":"UTC","LAUNCH_DATE":"2021-05-26","FILE":"3589751","TLE_LINE1":"1 48656U 21044U   22275.64566417 -.00002140  00000-0 -12487-3 0  9991","ARG_OF_PERICENTER":"67.2040","BSTAR":"-0.00012487000000","ELEMENT_SET_NO":"999","EPHEMERIS_TYPE":"0","EPOCH":"2022-10-02T15:29:45.384288","ECCENTRICITY":"0.00016590","MEAN_MOTION":"15.06386170","INCLINATION":"53.0570","CLASSIFICATION_TYPE":"U","MEAN_MOTION_DOT":"-0.00002140","GP_ID":"214048544","PERIAPSIS":"546.107","REV_AT_EPOCH":"7469","MEAN_ANOMALY":"292.9124","CENTER_NAME":"EARTH"},{"ARG_OF_PERICENTER":"60.0333","TLE_LINE1":"1 48657U 21044V   22275.70830586 -.00001290  00000-0 -67709-4 0  9993","FILE":"3589751","EPOCH":"2022-10-02T16:59:57.626304","ELEMENT_SET_NO":"999","EPHEMERIS_TYPE":"0","BSTAR":"-0.00006770900000","ECCENTRICITY":"0.00017010","MEAN_MOTION_DOT":"-0.00001290","CLASSIFICATION_TYPE":"U","INCLINATION":"53.0554","MEAN_MOTION":"15.06402440","GP_ID":"214048781","PERIAPSIS":"546.028","REV_AT_EPOCH":"7470","MEAN_ANOMALY":"300.0824","CENTER_NAME":"EARTH","OBJECT_TYPE":"PAYLOAD","NORAD_CAT_ID":"48657","APOAPSIS":"548.384","RCS_SIZE":"LARGE","COUNTRY_CODE":"US","OBJECT_NAME":"STARLINK-2734","RA_OF_ASC_NODE":"350.9605","REF_FRAME":"TEME","SITE":"AFETR","OBJECT_ID":"2021-044V","TLE_LINE2":"2 48657  53.0554 350.9605 0001701  60.0333 300.0824 15.06402440 74707","PERIOD":"95.592","SEMIMAJOR_AXIS":"6925.341","MEAN_ELEMENT_THEORY":"SGP4","DECAY_DATE":null,"MEAN_MOTION_DDOT":"0.0000000000000","LAUNCH_DATE":"2021-05-26","TIME_SYSTEM":"UTC"},{"FILE":"3589549","TLE_LINE1":"1 48658U 21044W   22275.70462781 -.00003542  00000-0 -21907-3 0  9993","ARG_OF_PERICENTER":"59.2767","BSTAR":"-0.00021907000000","EPHEMERIS_TYPE":"0","ELEMENT_SET_NO":"999","EPOCH":"2022-10-02T16:54:39.842784","ECCENTRICITY":"0.00017650","INCLINATION":"53.0539","MEAN_MOTION":"15.06388187","CLASSIFICATION_TYPE":"U","MEAN_MOTION_DOT":"-0.00003542","GP_ID":"214022147","PERIAPSIS":"546.027","REV_AT_EPOCH":"7560","MEAN_ANOMALY":"300.8395","CENTER_NAME":"EARTH","OBJECT_TYPE":"PAYLOAD","NORAD_CAT_ID":"48658","COUNTRY_CODE":"US","RA_OF_ASC_NODE":"350.9885","OBJECT_NAME":"STARLINK-2647","APOAPSIS":"548.472","RCS_SIZE":"LARGE","OBJECT_ID":"2021-044W","REF_FRAME":"TEME","SITE":"AFETR","PERIOD":"95.593","TLE_LINE2":"2 48658  53.0539 350.9885 0001765  59.2767 300.8395 15.06388187 75604","DECAY_DATE":null,"MEAN_MOTION_DDOT":"0.0000000000000","SEMIMAJOR_AXIS":"6925.385","MEAN_ELEMENT_THEORY":"SGP4","TIME_SYSTEM":"UTC","LAUNCH_DATE":"2021-05-26"},{"REV_AT_EPOCH":"7551","PERIAPSIS":"546.124","CENTER_NAME":"EARTH","MEAN_ANOMALY":"304.1577","GP_ID":"214022036","ECCENTRICITY":"0.00016270","MEAN_MOTION_DOT":"-0.00001878","CLASSIFICATION_TYPE":"U","MEAN_MOTION":"15.06387867","INCLINATION":"53.0577","ARG_OF_PERICENTER":"55.9566","TLE_LINE1":"1 48659U 21044X   22275.50191465 -.00001878  00000-0 -10724-3 0  9995","FILE":"3589557","EPHEMERIS_TYPE":"0","ELEMENT_SET_NO":"999","EPOCH":"2022-10-02T12:02:45.425760","BSTAR":"-0.00010724000000","MEAN_ELEMENT_THEORY":"SGP4","SEMIMAJOR_AXIS":"6925.386","MEAN_MOTION_DDOT":"0.0000000000000","DECAY_DATE":null,"LAUNCH_DATE":"2021-05-26","TIME_SYSTEM":"UTC","SITE":"AFETR","REF_FRAME":"TEME","OBJECT_ID":"2021-044X","TLE_LINE2":"2 48659  53.0577 351.8950 0001627  55.9566 304.1577 15.06387867 75510","PERIOD":"95.593","RCS_SIZE":"LARGE","APOAPSIS":"548.378","OBJECT_NAME":"STARLINK-2717","RA_OF_ASC_NODE":"351.8950","COUNTRY_CODE":"US","OBJECT_TYPE":"PAYLOAD","NORAD_CAT_ID":"48659"},{"ECCENTRICITY":"0.00013060","MEAN_MOTION":"15.06390833","INCLINATION":"53.0574","CLASSIFICATION_TYPE":"U","MEAN_MOTION_DOT":"-0.00002014","FILE":"3589751","ARG_OF_PERICENTER":"71.9847","TLE_LINE1":"1 48660U 21044Y   22275.69726608 -.00002014  00000-0 -11637-3 0  9997","BSTAR":"-0.00011637000000","EPHEMERIS_TYPE":"0","ELEMENT_SET_NO":"999","EPOCH":"2022-10-02T16:44:03.789312","PERIAPSIS":"546.337","REV_AT_EPOCH":"7470","MEAN_ANOMALY":"288.1284","CENTER_NAME":"EARTH","GP_ID":"214049044","COUNTRY_CODE":"US","OBJECT_NAME":"STARLINK-2688","RA_OF_ASC_NODE":"351.0157","APOAPSIS":"548.146","RCS_SIZE":"LARGE","OBJECT_TYPE":"PAYLOAD","NORAD_CAT_ID":"48660","DECAY_DATE":null,"MEAN_MOTION_DDOT":"0.0000000000000","MEAN_ELEMENT_THEORY":"SGP4","SEMIMAJOR_AXIS":"6925.377","TIME_SYSTEM":"UTC","LAUNCH_DATE":"2021-05-26","OBJECT_ID":"2021-044Y","REF_FRAME":"TEME","SITE":"AFETR","PERIOD":"95.593","TLE_LINE2":"2 48660  53.0574 351.0157 0001306  71.9847 288.1284 15.06390833 74707"}];
